{
    "CCSDS_OMM_VERS": "3.0",
    "COMMENT": "GENERATED VIA SPACE-TRACK.ORG API",
    "CREATION_DATE": "2025-05-22T17:14:14",
    "ORIGINATOR": "18 SPCS",
    "OBJECT_NAME": "GALILEO 22 (2C8)",
    "OBJECT_ID": "2017-079D",
    "CENTER_NAME": "EARTH",
    "REF_FRAME": "TEME",
    "TIME_SYSTEM": "UTC",
    "MEAN_ELEMENT_THEORY": "SGP4",
    "EPOCH": "2025-05-22T11:56:04.761312",
    "MEAN_MOTION": "1.70474748",
    "ECCENTRICITY": "0.00035830",
    "INCLINATION": "55.1997",
    "RA_OF_ASC_NODE": "232.2529",
    "ARG_OF_PERICENTER": "266.9958",
    "MEAN_ANOMALY": "93.0030",
    "EPHEMERIS_TYPE": "0",
    "CLASSIFICATION_TYPE": "U",
    "NORAD_CAT_ID": "43058",
    "ELEMENT_SET_NO": "999",
    "REV_AT_EPOCH": "4635",
    "BSTAR": "0.00000000000000",
    "MEAN_MOTION_DOT": "0.00000004",
    "MEAN_MOTION_DDOT": "0.0000000000000",
    "SEMIMAJOR_AXIS": "29600.233",
    "PERIOD": "844.700",
    "APOAPSIS": "23232.704",
    "PERIAPSIS": "23211.493",
    "OBJECT_TYPE": "PAYLOAD",
    "RCS_SIZE": "LARGE",
    "COUNTRY_CODE": "ESA",
    "LAUNCH_DATE": "2017-12-12",
    "SITE": "FRGUI",
    "DECAY_DATE": null,
    "FILE": "4736220",
    "GP_ID": "288144903",
    "TLE_LINE0": "0 GALILEO 22 (2C8)",
    "TLE_LINE1": "1 43058U 17079D   25142.49727733  .00000004  00000-0  00000-0 0  9994",
    "TLE_LINE2": "2 43058  55.1997 232.2529 0003583 266.9958  93.0030  1.70474748 46352"
}